stk.v.4.3 

BEGIN Ephemeris 
 
NumberOfEphemerisPoints		146 
ScenarioEpoch	    3 Sep 2020 20:51:16.813459397 
InterpolationMethod		Lagrange 
InterpolationOrder		5 
CentralBody				Earth 
CoordinateSystem			TEME 
CoordinateSystemEpoch	  3 Sep 2020 20:51:16.813459397 
DistanceUnit			Kilometers 
 
EphemerisTimePosVel 
 
       0.00000000   -7117.68442745    -714.46964606       0.04193506  0.056053889 -0.464827313  7.451716402
 END Ephemeris 
